{
  "version": 0.6,
  "generator": "Overpass API 0.7.56.6 474850e8",
  "osm3s": {
    "timestamp_osm_base": "2020-08-14T19:33:03Z",
    "copyright": "The data included in this document is from www.openstreetmap.org. The data is made available under ODbL."
  },
  "elements": [
    {
      "type": "way",
      "id": 94453497,
      "tags": {
        "name": "Leithagebirge",
        "name:de": "Leithagebirge",
        "name:en": "Leitha Mountains",
        "name:fr": "Montagne de la Leitha",
        "name:hu": "Lajta-hegység",
        "natural": "mountain_range",
        "wikidata": "Q696846",
        "wikipedia": "de:Leithagebirge",
        "wikipedia:en": "Leitha_Mountains",
        "wikipedia:fr": "Montagne_de_la_Leitha",
        "wikipedia:hu": "Montagne de la Leitha"
      }
    },
    {
      "type": "way",
      "id": 279561562,
      "tags": {
        "name": "Pilis-hegység",
        "name:de": "Pilisgebirge",
        "natural": "mountain_range",
        "wikidata": "Q1072459",
        "wikipedia": "hu:Pilis (hegység)"
      }
    },
    {
      "type": "way",
      "id": 279561563,
      "tags": {
        "name": "Visegrádi-hegység",
        "natural": "mountain_range",
        "wikidata": "Q717892",
        "wikipedia": "hu:Visegrádi-hegység"
      }
    },
    {
      "type": "way",
      "id": 279564162,
      "tags": {
        "name": "Börzsöny",
        "name:de": "Pilsengebirge",
        "name:pl": "Börzsöny",
        "natural": "mountain_range",
        "wikidata": "Q855211",
        "wikipedia": "hu:Börzsöny (hegység)"
      }
    },
    {
      "type": "way",
      "id": 279569719,
      "tags": {
        "name": "Naszály",
        "natural": "mountain_range",
        "wikidata": "Q26231720",
        "wikipedia": "hu:Naszály (hegy)"
      }
    },
    {
      "type": "way",
      "id": 279573777,
      "tags": {
        "alt_name": "Bükk-hegység",
        "name": "Bükk",
        "name:cs": "Bukové hory",
        "name:ka": "ბიუკი",
        "name:lt": "Biukas",
        "name:pl": "Góry Bukowe",
        "name:ro": "Munții Bükk",
        "name:ru": "Бюкк",
        "name:uk": "Бюкк",
        "natural": "mountain_range",
        "wikidata": "Q855526",
        "wikipedia": "hu:Bükk-vidék"
      }
    },
    {
      "type": "way",
      "id": 279583932,
      "tags": {
        "name": "Mátra",
        "name:cs": "Matra",
        "name:de": "Mátra-Gebirge",
        "name:he": "הרי מאטרה",
        "name:ka": "მატრა",
        "name:lt": "Matros kalnai",
        "name:ru": "Матра",
        "name:sk": "Matra",
        "name:tt": "Матра",
        "name:uk": "Матра",
        "name:zh": "马特劳山",
        "natural": "mountain_range",
        "place": "region",
        "region:type": "mountain_area",
        "wikidata": "Q756096",
        "wikipedia": "hu:Mátra"
      }
    },
    {
      "type": "way",
      "id": 279590728,
      "tags": {
        "name": "Cserhát",
        "name:lt": "Čerhatas",
        "name:pl": "Czerhat",
        "name:sv": "Cserhát",
        "natural": "mountain_range",
        "wikidata": "Q872024",
        "wikipedia": "hu:Cserhát"
      }
    },
    {
      "type": "way",
      "id": 279593581,
      "tags": {
        "name": "Heves-Borsodi-dombság",
        "natural": "mountain_range",
        "wikidata": "Q12814597",
        "wikipedia": "hu:Heves–Borsodi-dombság"
      }
    },
    {
      "type": "way",
      "id": 279651467,
      "tags": {
        "name": "Gödöllői-dombság",
        "natural": "mountain_range",
        "wikidata": "Q1031479",
        "wikipedia": "hu:Gödöllői-dombság"
      }
    },
    {
      "type": "way",
      "id": 279656183,
      "tags": {
        "alt_name": "Tokaji-hegy",
        "name": "Kopasz-hegy",
        "natural": "mountain_range",
        "wikidata": "Q1118658",
        "wikipedia": "hu:Kopasz-hegy (Zempléni-hegység)"
      }
    },
    {
      "type": "way",
      "id": 279656184,
      "tags": {
        "alt_name:de": "Tokajer Gebirge",
        "name": "Zempléni-hegység",
        "name:cs": "Zemplínské vrchy",
        "name:de": "Sempliner Gebirge",
        "name:en": "Zemplén Mountains",
        "name:eo": "Montaro Zemplén",
        "name:fr": "Massif de Zemplén",
        "name:hu": "Zempléni-hegység",
        "name:it": "Monti Zemplén",
        "name:nn": "Zemplénfjella",
        "name:pl": "Góry Zemplińskie",
        "natural": "mountain_range",
        "place": "region",
        "region:type": "mountain_area",
        "wikidata": "Q897633",
        "wikipedia": "hu:Zempléni-hegység"
      }
    },
    {
      "type": "way",
      "id": 279660398,
      "tags": {
        "name": "Aggteleki-karszt",
        "natural": "mountain_range",
        "wikidata": "Q516600",
        "wikipedia": "hu:Aggteleki-karszt"
      }
    },
    {
      "type": "way",
      "id": 279660793,
      "tags": {
        "name": "Cserehát",
        "natural": "mountain_range",
        "wikidata": "Q871818",
        "wikipedia": "hu:Cserehát"
      }
    },
    {
      "type": "way",
      "id": 279663379,
      "tags": {
        "name": "Gerecse-hegység",
        "name:de": "Geißgebirge",
        "natural": "mountain_range",
        "wikidata": "Q256766",
        "wikipedia": "hu:Gerecse"
      }
    },
    {
      "type": "way",
      "id": 279663918,
      "tags": {
        "alt_name": "Vértes hegység",
        "name": "Vértes",
        "name:de": "Schildgebirge",
        "name:hu": "Vértes",
        "natural": "mountain_range",
        "wikidata": "Q919994",
        "wikipedia": "hu:Vértes (hegység)"
      }
    },
    {
      "type": "way",
      "id": 279664160,
      "tags": {
        "name": "Velencei-hegység",
        "natural": "mountain_range",
        "wikidata": "Q220884",
        "wikipedia": "hu:Velencei-hegység"
      }
    },
    {
      "type": "way",
      "id": 279665156,
      "tags": {
        "name": "Bakony",
        "name:cs": "Bakoňský les",
        "name:de": "Bakonywald",
        "name:es": "Montes Bakony",
        "name:hr": "Bakonjska šuma",
        "name:lt": "Bakonis",
        "name:pl": "Las Bakoński",
        "name:ru": "Баконь",
        "name:sk": "Bakonský les",
        "name:uk": "Баконь",
        "natural": "mountain_range",
        "wikidata": "Q695810",
        "wikipedia": "hu:Bakony"
      }
    },
    {
      "type": "way",
      "id": 279665387,
      "tags": {
        "name": "Balaton-felvidék",
        "natural": "mountain_range",
        "wikidata": "Q789218",
        "wikipedia": "hu:Balaton-felvidék"
      }
    },
    {
      "type": "way",
      "id": 279665573,
      "tags": {
        "name": "Keszthelyi-hegység",
        "natural": "mountain_range",
        "wikidata": "Q1107884",
        "wikipedia": "hu:Keszthelyi-fennsík"
      }
    },
    {
      "type": "way",
      "id": 279665961,
      "tags": {
        "fixme": "geometry?",
        "name": "Mecsek",
        "name:cs": "Mecsek",
        "name:es": "Montes Mecsek",
        "name:lt": "Mečekas",
        "name:nl": "Mecsekgebergte",
        "name:sv": "Mecsek",
        "name:uk": "Мечек",
        "natural": "mountain_range",
        "wikidata": "Q953076",
        "wikipedia": "hu:Mecsek"
      }
    },
    {
      "type": "way",
      "id": 279666014,
      "tags": {
        "name": "Zselic",
        "natural": "mountain_range",
        "wikidata": "Q1467964",
        "wikipedia": "hu:Zselic"
      }
    },
    {
      "type": "way",
      "id": 279667079,
      "tags": {
        "name": "Villányi-hegység",
        "natural": "mountain_range",
        "wikidata": "Q1049256",
        "wikipedia": "hu:Villányi-hegység"
      }
    },
    {
      "type": "way",
      "id": 300323308,
      "tags": {
        "name": "Günser Gebirge",
        "name:de": "Günser Gebirge",
        "name:hu": "Kőszegi-hegység",
        "natural": "mountain_range",
        "place": "region",
        "region:type": "mountain_area",
        "wikidata": "Q695305",
        "wikipedia": "hu:Kőszegi-hegység"
      }
    }
  ]
}
